{
    "links": {
        "self": "http://www.neowsapp.com/rest/v1/neo/3727636?api_key=iIulBulltgU6a56xZRHN4H3l9WmuAYTsLGpBGhQ2"
    },
    "id": "3727636",
    "neo_reference_id": "3727636",
    "name": "(2015 RO83)",
    "designation": "2015 RO83",
    "nasa_jpl_url": "http://ssd.jpl.nasa.gov/sbdb.cgi?sstr=3727636",
    "absolute_magnitude_h": 25.0,
    "estimated_diameter": {
        "kilometers": {
            "estimated_diameter_min": 0.02658,
            "estimated_diameter_max": 0.0594346868
        },
        "meters": {
            "estimated_diameter_min": 26.58,
            "estimated_diameter_max": 59.4346868419
        },
        "miles": {
            "estimated_diameter_min": 0.0165160412,
            "estimated_diameter_max": 0.0369309908
        },
        "feet": {
            "estimated_diameter_min": 87.2047272,
            "estimated_diameter_max": 194.9956979785
        }
    },
    "is_potentially_hazardous_asteroid": false,
    "close_approach_data": [
        {
            "close_approach_date": "2015-09-09",
            "close_approach_date_full": "2015-Sep-09 00:47",
            "epoch_date_close_approach": 1441759620000,
            "relative_velocity": {
                "kilometers_per_second": "6.3305268182",
                "kilometers_per_hour": "22789.8965456058",
                "miles_per_hour": "14160.7554396849"
            },
            "miss_distance": {
                "astronomical": "0.0137572541",
                "lunar": "5.3515718449",
                "kilometers": "2058055.910408767",
                "miles": "1278816.6432123046"
            },
            "orbiting_body": "Earth"
        }
    ],
    "orbital_data": {
        "orbit_id": "8",
        "orbit_determination_date": "2017-04-06 08:31:56",
        "first_observation_date": "2015-09-15",
        "last_observation_date": "2015-10-08",
        "data_arc_in_days": 23,
        "observations_used": 25,
        "orbit_uncertainty": "7",
        "minimum_orbit_intersection": ".00991359",
        "jupiter_tisserand_invariant": "4.463",
        "epoch_osculation": "2459000.5",
        "eccentricity": ".331965873702712",
        "semi_major_axis": "1.506706772969431",
        "inclination": "5.840424809251502",
        "ascending_node_longitude": "166.0163224374255",
        "orbital_period": "675.5251734590181",
        "perihelion_distance": "1.00653154266684",
        "perihelion_argument": "161.3581709286245",
        "aphelion_distance": "2.006882003272021",
        "perihelion_time": "2459284.991357113971",
        "mean_anomaly": "208.3892346504202",
        "mean_motion": ".5329187040604639",
        "equinox": "J2000",
        "orbit_class": {
            "orbit_class_type": "APO",
            "orbit_class_description": "Near-Earth asteroid orbits which cross the Earth’s orbit similar to that of 1862 Apollo",
            "orbit_class_range": "a (semi-major axis) > 1.0 AU; q (perihelion) < 1.017 AU"
        }
    },
    "is_sentry_object": false
}